OBJECT_NAME,OBJECT_ID,EPOCH,MEAN_MOTION,ECCENTRICITY,INCLINATION,RA_OF_ASC_NODE,ARG_OF_PERICENTER,MEAN_ANOMALY,EPHEMERIS_TYPE,CLASSIFICATION_TYPE,NORAD_CAT_ID,ELEMENT_SET_NO,REV_AT_EPOCH,BSTAR,MEAN_MOTION_DOT,MEAN_MOTION_DDOT
IONOSFERA-M 2,2024-199B,2026-06-28T21:39:06.192864,14.22759632,.00005442,98.7157,52.8605,41.3341,318.7878,0,U,61736,999,13249,.43195593E-4,.53E-6,0
PRSC-EO1,2025-012A,2026-06-28T23:50:43.209024,15.17754577,.00057708,97.4229,252.2226,203.3736,156.7236,0,U,62725,999,7998,.31498762E-3,.6296E-4,0
BIOMASS,2025-090A,2026-06-25T10:04:41.476800,14.67536962,.0001429,98.0741,3.6181,94.8977,265.2391,0,U,63772,999,6189,.12495E-3,.661E-5,0
GOSAT-GW (IBUKI GW),2025-141A,2026-06-28T23:39:10.726848,14.67551620,.00014826,98.0571,117.1111,89.3461,270.7914,0,U,64694,999,5357,.11214535E-3,.588E-5,0
IONOSFERA-M 3,2025-155A,2026-06-29T00:01:03.340704,14.21488410,.00016408,98.6030,141.6086,137.1185,223.0121,0,U,64876,999,4808,.44932995E-4,.55E-6,0
IONOSFERA-M 4,2025-155B,2026-06-28T23:09:50.378688,14.21490725,.00014399,98.6028,141.4912,114.3285,245.8044,0,U,64877,999,4807,.36538588E-4,.37E-6,0
MICROCARB,2025-156A,2026-06-28T16:51:12.198528,14.72534706,.00155483,97.9920,256.6424,228.9563,131.0302,0,U,64899,999,4966,.84954317E-4,.491E-5,0
CO3D 3,2025-156B,2026-06-28T23:16:40.644768,15.20205503,.00018189,97.4338,258.4933,116.1385,244.0037,0,U,64900,999,5132,.207645E-3,.4431E-4,0
CO3D 4,2025-156C,2026-06-28T21:42:05.225760,15.20220441,.00006768,97.4337,258.4286,180.2801,179.8434,0,U,64901,999,5131,.19798635E-3,.4223E-4,0
CO3D 2,2025-156D,2026-06-28T22:28:52.652928,15.20203156,.00014785,97.4336,258.3593,97.5247,262.6156,0,U,64902,999,5131,.18647335E-3,.3971E-4,0
CO3D 1,2025-156E,2026-06-28T22:29:05.421984,15.20195529,.00013224,97.4335,258.3596,104.9562,255.1819,0,U,64903,999,5131,.18288936E-3,.3893E-4,0
PRSC-S1,2025-164A,2026-06-28T19:11:01.426848,15.06540368,.00050827,41.1291,222.4089,70.1885,289.9477,0,U,65055,999,5018,.2109443E-3,.2998E-4,0
SENTINEL-6B,2025-264A,2026-06-28T22:52:51.485952,12.80929912,.00079246,66.0410,110.7405,268.9115,91.0993,0,U,66514,999,2867,-.99039295E-4,-.84E-6,0
CAS500-3,2025-274F,2026-06-28T18:41:38.325984,14.88347608,.00069497,97.7444,107.5663,80.8008,279.3995,0,U,66655,999,3187,.13477269E-3,.1194E-4,0
CSG-3,2026-001A,2026-06-28T22:42:01.668960,14.82161460,.00014809,97.8889,3.3774,95.8536,264.2846,0,U,67304,999,2620,.45988182E-4,.314E-5,0
PRSC-E03,2026-092A,2026-06-28T23:38:28.801248,15.06729705,.00028346,38.0023,20.1084,127.3157,232.7863,0,U,68835,999,973,.18791296E-3,.2738E-4,0
CAS500-2,2026-100AK,2026-06-28T23:55:20.736192,15.20725238,.00093411,97.3897,77.6362,356.0332,4.0828,0,U,69013,999,860,.28218429E-3,.6146E-4,0
