IONOSFERA-M 2           
1 61736U 24199B   26179.90215501  .00000053  00000+0  43196-4 0  9990
2 61736  98.7157  52.8605 0000544  41.3341 318.7878 14.22759632132499
PRSC-EO1                
1 62725U 25012A   26179.99355566  .00006296  00000+0  31499-3 0  9996
2 62725  97.4229 252.2226 0005770 203.3736 156.7236 15.17754577 79983
BIOMASS                 
1 63772U 25090A   26176.41992450  .00000661  00000+0  12495-3 0  9993
2 63772  98.0741   3.6181 0001429  94.8977 265.2391 14.67536962 61896
GOSAT-GW (IBUKI GW)     
1 64694U 25141A   26179.98554082  .00000588  00000+0  11215-3 0  9991
2 64694  98.0571 117.1111 0001482  89.3461 270.7914 14.67551620 53577
IONOSFERA-M 3           
1 64876U 25155A   26180.00073311  .00000055  00000+0  44933-4 0  9997
2 64876  98.6030 141.6086 0001640 137.1185 223.0121 14.21488410 48086
IONOSFERA-M 4           
1 64877U 25155B   26179.96516642  .00000037  00000+0  36539-4 0  9993
2 64877  98.6028 141.4912 0001439 114.3285 245.8044 14.21490725 48071
MICROCARB               
1 64899U 25156A   26179.70222452  .00000491  00000+0  84954-4 0  9991
2 64899  97.9920 256.6424 0015548 228.9563 131.0302 14.72534706 49665
CO3D 3                  
1 64900U 25156B   26179.96991487  .00004431  00000+0  20765-3 0  9990
2 64900  97.4338 258.4933 0001818 116.1385 244.0037 15.20205503 51326
CO3D 4                  
1 64901U 25156C   26179.90422715  .00004223  00000+0  19799-3 0  9992
2 64901  97.4337 258.4286 0000676 180.2801 179.8434 15.20220441 51316
CO3D 2                  
1 64902U 25156D   26179.93672052  .00003971  00000+0  18647-3 0  9997
2 64902  97.4336 258.3593 0001478  97.5247 262.6156 15.20203156 51317
CO3D 1                  
1 64903U 25156E   26179.93686831  .00003893  00000+0  18289-3 0  9993
2 64903  97.4335 258.3596 0001322 104.9562 255.1819 15.20195529 51318
PRSC-S1                 
1 65055U 25164A   26179.79932207  .00002998  00000+0  21094-3 0  9999
2 65055  41.1291 222.4089 0005082  70.1885 289.9477 15.06540368 50180
SENTINEL-6B             
1 66514U 25264A   26179.95337368 -.00000084  00000+0 -99039-4 0  9997
2 66514  66.0410 110.7405 0007924 268.9115  91.0993 12.80929912 28670
CAS500-3                
1 66655U 25274F   26179.77891581  .00001194  00000+0  13477-3 0  9998
2 66655  97.7444 107.5663 0006949  80.8008 279.3995 14.88347608 31877
CSG-3                   
1 67304U 26001A   26179.94585265  .00000314  00000+0  45988-4 0  9993
2 67304  97.8889   3.3774 0001480  95.8536 264.2846 14.82161460 26209
PRSC-E03                
1 68835U 26092A   26179.98505557  .00002738  00000+0  18791-3 0  9996
2 68835  38.0023  20.1084 0002834 127.3157 232.7863 15.06729705  9738
CAS500-2                
1 69013U 26100AK  26179.99676778  .00006146  00000+0  28218-3 0  9992
2 69013  97.3897  77.6362 0009341 356.0332   4.0828 15.20725238  8605
